[
    {
        "Altitude(m)": 610405.3475631524,
        "Argument of Periapsis(deg)": 0.0,
        "Eccentricity": 0.0,
        "Inclination(deg)": 60.0,
        "Latitude(deg)": 52.1113392517502,
        "Longitude(deg)": 117.47747519536956,
        "Mean Anomaly(deg)": 114.5455,
        "RAAN(deg)": 85.00000000000001,
        "Satellite Name": "Test1 381",
        "Satellite Number": 381,
        "Semi-Major Axis(m)": 6980739.136638005,
        "Time(s)": 0
    },
    {
        "Altitude(m)": 610321.9203977495,
        "Argument of Periapsis(deg)": 0.00010418945913296404,
        "Eccentricity": 0.0,
        "Inclination(deg)": 60.0,
        "Latitude(deg)": 51.74605362619459,
        "Longitude(deg)": 118.24636941649054,
        "Mean Anomaly(deg)": 115.16560614546188,
        "RAAN(deg)": 84.99957995086027,
        "Satellite Name": "Test1 381",
        "Satellite Number": 381,
        "Semi-Major Axis(m)": 6980739.136638005,
        "Time(s)": 10
    }
]